ONEWEB-0501             
1 54119U 22138G   23260.20021534  .00000087  00000+0  18377-3 0  9999
2 54119  87.9259 144.7838 0002336  87.8143 272.3257 13.19726531 44387
ONEWEB-0502             
1 54120U 22138H   23260.18598170  .00000106  00000+0  23291-3 0  9996
2 54120  87.9257 144.7792 0002044  84.8878 275.2488 13.19727363 44409
ONEWEB-0503             
1 54121U 22138J   23260.70566410  .00000354  00000+0  85215-3 0  9996
2 54121  87.9255 144.6843 0001918  83.8460 276.2891 13.19723950 45339
ONEWEB-0504             
1 54122U 22138K   23260.23809640  .00000088  00000+0  18747-3 0  9990
2 54122  87.9209 144.7801 0001861  91.2307 268.9039 13.19724231 44417
ONEWEB-0505             
1 54123U 22138L   23260.23493761 -.00000388  00000+0 -10004-2 0  9996
2 54123  87.9258 144.7760 0001826  92.3454 267.7888 13.19726431 44392
ONEWEB-0506             
1 54124U 22138M   23260.74038083 -.00001057  00000+0 -26739-2 0  9991
2 54124  87.9254 144.6728 0002346  76.4325 283.7069 13.19729490 45321
ONEWEB-0507             
1 54125U 22138N   23260.23021592  .00000021  00000+0  21010-4 0  9990
2 54125  87.9206 144.8004 0002047  81.1306 279.0058 13.19727418 44433
ONEWEB-0508             
1 54126U 22138P   23260.22706225  .00000040  00000+0  68495-4 0  9992
2 54126  87.9256 144.7817 0002353  87.9088 272.2314 13.19727726 44411
